{"type": "FeatureCollection", "features": [ {"type": "Feature", "properties": {"norad_id": 43648, "name": "BEIDOU-3 M15 (C34)", "group": "gnss", "lat": 10.577356572651015, "lon": 118.55578571331753, "alt_km": 21535.991638580723, "timestamp": "2025-12-18T23:35:49.301912+00:00", "meta": {"OBJECT_NAME": "BEIDOU-3 M15 (C34)", "OBJECT_ID": "2018-078B", "EPOCH": "2025-12-18T04:44:16.550592", "MEAN_MOTION": 1.86232281, "ECCENTRICITY": 0.00039569, "INCLINATION": 54.2524, "RA_OF_ASC_NODE": 306.3307, "ARG_OF_PERICENTER": 20.2527, "MEAN_ANOMALY": 339.7508, "EPHEMERIS_TYPE": 0, "CLASSIFICATION_TYPE": "U", "NORAD_CAT_ID": 43648, "ELEMENT_SET_NO": 999, "REV_AT_EPOCH": 4880, "BSTAR": 0, "MEAN_MOTION_DOT": -8.5e-07, "MEAN_MOTION_DDOT": 0}, "tle": {"line1": "1 43648U 18078B   25352.19741378 -.00000085  00000+0  00000+0 0  9998", "line2": "2 43648  54.2524 306.3307 0003956  20.2527 339.7508  1.86232281 48800"}}, "geometry": {"type": "Point", "coordinates": [118.55578571331753, 10.577356572651015]}}, {"type": "Feature", "properties": {"norad_id": 43683, "name": "BEIDOU-3 G1 (C59)", "group": "gnss", "lat": 2.2714125533328553, "lon": -138.13446461786066, "alt_km": 35784.337457266745, "timestamp": "2025-12-18T23:35:49.301930+00:00", "meta": {"OBJECT_NAME": "BEIDOU-3 G1 (C59)", "OBJECT_ID": "2018-085A", "EPOCH": "2025-12-18T15:40:20.515008", "MEAN_MOTION": 1.00269184, "ECCENTRICITY": 0.00016338, "INCLINATION": 2.622, "RA_OF_ASC_NODE": 102.7934, "ARG_OF_PERICENTER": 48.1042, "MEAN_ANOMALY": 311.7383, "EPHEMERIS_TYPE": 0, "CLASSIFICATION_TYPE": "U", "NORAD_CAT_ID": 43683, "ELEMENT_SET_NO": 999, "REV_AT_EPOCH": 2625, "BSTAR": 0, "MEAN_MOTION_DOT": -2.55e-06, "MEAN_MOTION_DDOT": 0}, "tle": {"line1": "1 43683U 18085A   25352.65301522 -.00000255  00000+0  00000+0 0  9998", "line2": "2 43683   2.6220 102.7934 0001633  48.1042 311.7383  1.00269184 26258"}}, "geometry": {"type": "Point", "coordinates": [-138.13446461786066, 2.2714125533328553]}}, {"type": "Feature", "properties": {"norad_id": 43687, "name": "COSMOS 2529 (757)", "group": "gnss", "lat": -1.768791197571725, "lon": -162.17094038422826, "alt_km": 19135.121132743305, "timestamp": "2025-12-18T23:35:49.301953+00:00", "meta": {"OBJECT_NAME": "COSMOS 2529 (757)", "OBJECT_ID": "2018-086A", "EPOCH": "2025-12-18T12:23:46.661856", "MEAN_MOTION": 2.13102105, "ECCENTRICITY": 0.00070461, "INCLINATION": 64.2922, "RA_OF_ASC_NODE": 198.6932, "ARG_OF_PERICENTER": 253.6593, "MEAN_ANOMALY": 106.345, "EPHEMERIS_TYPE": 0, "CLASSIFICATION_TYPE": "U", "NORAD_CAT_ID": 43687, "ELEMENT_SET_NO": 999, "REV_AT_EPOCH": 5543, "BSTAR": 0, "MEAN_MOTION_DOT": 1.09e-06, "MEAN_MOTION_DDOT": 0}, "tle": {"line1": "1 43687U 18086A   25352.51651229  .00000109  00000+0  00000+0 0  9997", "line2": "2 43687  64.2922 198.6932 0007046 253.6593 106.3450  2.13102105 55434"}}, "geometry": {"type": "Point", "coordinates": [-162.17094038422826, -1.768791197571725]}}, {"type": "Feature", "properties": {"norad_id": 43706, "name": "BEIDOU-3 M17 (C36)", "group": "gnss", "lat": 44.86021002430147, "lon": -125.5875749545552, "alt_km": 21529.501174956495, "timestamp": "2025-12-18T23:35:49.301993+00:00", "meta": {"OBJECT_NAME": "BEIDOU-3 M17 (C36)", "OBJECT_ID": "2018-093A", "EPOCH": "2025-12-15T07:56:44.520576", "MEAN_MOTION": 1.86228523, "ECCENTRICITY": 0.00061371, "INCLINATION": 54.1729, "RA_OF_ASC_NODE": 188.5337, "ARG_OF_PERICENTER": 307.6759, "MEAN_ANOMALY": 184.25, "EPHEMERIS_TYPE": 0, "CLASSIFICATION_TYPE": "U", "NORAD_CAT_ID": 43706, "ELEMENT_SET_NO": 999, "REV_AT_EPOCH": 4811, "BSTAR": 0, "MEAN_MOTION_DOT": 1.13e-06, "MEAN_MOTION_DDOT": 0}, "tle": {"line1": "1 43706U 18093A   25349.33107084  .00000113  00000+0  00000+0 0  9993", "line2": "2 43706  54.1729 188.5337 0006137 307.6759 184.2500  1.86228523 48110"}}, "geometry": {"type": "Point", "coordinates": [-125.5875749545552, 44.86021002430147]}}, {"type": "Feature", "properties": {"norad_id": 43707, "name": "BEIDOU-3 M18 (C37)", "group": "gnss", "lat": 21.321643687637184, "lon": -7.978907131047344, "alt_km": 21542.456478706452, "timestamp": "2025-12-18T23:35:49.302014+00:00", "meta": {"OBJECT_NAME": "BEIDOU-3 M18 (C37)", "OBJECT_ID": "2018-093B", "EPOCH": "2025-12-16T14:33:42.784416", "MEAN_MOTION": 1.8622677, "ECCENTRICITY": 0.00063186, "INCLINATION": 54.1735, "RA_OF_ASC_NODE": 188.4822, "ARG_OF_PERICENTER": 353.2257, "MEAN_ANOMALY": 6.8349, "EPHEMERIS_TYPE": 0, "CLASSIFICATION_TYPE": "U", "NORAD_CAT_ID": 43707, "ELEMENT_SET_NO": 999, "REV_AT_EPOCH": 4813, "BSTAR": 0, "MEAN_MOTION_DOT": 1.15e-06, "MEAN_MOTION_DDOT": 0}, "tle": {"line1": "1 43707U 18093B   25350.60674519  .00000115  00000+0  00000+0 0  9990", "line2": "2 43707  54.1735 188.4822 0006318 353.2257   6.8349  1.86226770 48131"}}, "geometry": {"type": "Point", "coordinates": [-7.978907131047344, 21.321643687637184]}}, {"type": "Feature", "properties": {"norad_id": 43873, "name": "GPS BIII-1  (PRN 04)", "group": "gnss", "lat": -23.091769306685634, "lon": 82.3143383450118, "alt_km": 20258.3388650336, "timestamp": "2025-12-18T23:35:49.302033+00:00", "meta": {"OBJECT_NAME": "GPS BIII-1  (PRN 04)", "OBJECT_ID": "2018-109A", "EPOCH": "2025-12-18T12:57:04.857120", "MEAN_MOTION": 2.00553911, "ECCENTRICITY": 0.0037524, "INCLINATION": 55.5701, "RA_OF_ASC_NODE": 99.3182, "ARG_OF_PERICENTER": 195.2606, "MEAN_ANOMALY": 175.7707, "EPHEMERIS_TYPE": 0, "CLASSIFICATION_TYPE": "U", "NORAD_CAT_ID": 43873, "ELEMENT_SET_NO": 999, "REV_AT_EPOCH": 5145, "BSTAR": 0, "MEAN_MOTION_DOT": -3e-07, "MEAN_MOTION_DDOT": 0}, "tle": {"line1": "1 43873U 18109A   25352.53963955 -.00000030  00000+0  00000+0 0  9998", "line2": "2 43873  55.5701  99.3182 0037524 195.2606 175.7707  2.00553911 51457"}}, "geometry": {"type": "Point", "coordinates": [82.3143383450118, -23.091769306685634]}}, {"type": "Feature", "properties": {"norad_id": 44204, "name": "BEIDOU-3 IGSO-1 (C38)", "group": "gnss", "lat": 21.67901902127132, "lon": -154.56955228243447, "alt_km": 35747.634338006064, "timestamp": "2025-12-18T23:35:49.302051+00:00", "meta": {"OBJECT_NAME": "BEIDOU-3 IGSO-1 (C38)", "OBJECT_ID": "2019-023A", "EPOCH": "2025-11-19T14:15:02.708640", "MEAN_MOTION": 1.00252177, "ECCENTRICITY": 0.0026966, "INCLINATION": 58.4003, "RA_OF_ASC_NODE": 39.8168, "ARG_OF_PERICENTER": 221.2202, "MEAN_ANOMALY": 126.9723, "EPHEMERIS_TYPE": 0, "CLASSIFICATION_TYPE": "U", "NORAD_CAT_ID": 44204, "ELEMENT_SET_NO": 999, "REV_AT_EPOCH": 510, "BSTAR": 0, "MEAN_MOTION_DOT": -2.26e-06, "MEAN_MOTION_DDOT": 0}, "tle": {"line1": "1 44204U 19023A   25323.59378135 -.00000226  00000+0  00000+0 0  9994", "line2": "2 44204  58.4003  39.8168 0026966 221.2202 126.9723  1.00252177  5102"}}, "geometry": {"type": "Point", "coordinates": [-154.56955228243447, 21.67901902127132]}}, {"type": "Feature", "properties": {"norad_id": 44231, "name": "BEIDOU-2 G8 (C01)", "group": "gnss", "lat": 0.7816340121482931, "lon": -133.870690781928, "alt_km": 35794.76180155241, "timestamp": "2025-12-18T23:35:49.302075+00:00", "meta": {"OBJECT_NAME": "BEIDOU-2 G8 (C01)", "OBJECT_ID": "2019-027A", "EPOCH": "2025-12-18T15:41:42.882720", "MEAN_MOTION": 1.0027653, "ECCENTRICITY": 0.0008207, "INCLINATION": 1.6761, "RA_OF_ASC_NODE": 74.7645, "ARG_OF_PERICENTER": 258.5961, "MEAN_ANOMALY": 133.9994, "EPHEMERIS_TYPE": 0, "CLASSIFICATION_TYPE": "U", "NORAD_CAT_ID": 44231, "ELEMENT_SET_NO": 999, "REV_AT_EPOCH": 2427, "BSTAR": 0, "MEAN_MOTION_DOT": -2.23e-06, "MEAN_MOTION_DDOT": 0}, "tle": {"line1": "1 44231U 19027A   25352.65396855 -.00000223  00000+0  00000+0 0  9993", "line2": "2 44231   1.6761  74.7645 0008207 258.5961 133.9994  1.00276530 24270"}}, "geometry": {"type": "Point", "coordinates": [-133.870690781928, 0.7816340121482931]}}, {"type": "Feature", "properties": {"norad_id": 44299, "name": "COSMOS 2534 (758)", "group": "gnss", "lat": 41.74416525345499, "lon": -6.69412000427482, "alt_km": 19144.70167142002, "timestamp": "2025-12-18T23:35:49.302096+00:00", "meta": {"OBJECT_NAME": "COSMOS 2534 (758)", "OBJECT_ID": "2019-030A", "EPOCH": "2025-12-18T13:43:24.214656", "MEAN_MOTION": 2.13102439, "ECCENTRICITY": 0.00087557, "INCLINATION": 64.3657, "RA_OF_ASC_NODE": 198.6965, "ARG_OF_PERICENTER": 284.187, "MEAN_ANOMALY": 252.6617, "EPHEMERIS_TYPE": 0, "CLASSIFICATION_TYPE": "U", "NORAD_CAT_ID": 44299, "ELEMENT_SET_NO": 999, "REV_AT_EPOCH": 5107, "BSTAR": 0, "MEAN_MOTION_DOT": 1.09e-06, "MEAN_MOTION_DDOT": 0}, "tle": {"line1": "1 44299U 19030A   25352.57180804  .00000109  00000+0  00000+0 0  9999", "line2": "2 44299  64.3657 198.6965 0008755 284.1870 252.6617  2.13102439 51077"}}, "geometry": {"type": "Point", "coordinates": [-6.69412000427482, 41.74416525345499]}}, {"type": "Feature", "properties": {"norad_id": 44337, "name": "BEIDOU-3 IGSO-2 (C39)", "group": "gnss", "lat": 32.34412950768111, "lon": -173.42234505306214, "alt_km": 35933.04090182586, "timestamp": "2025-12-18T23:35:49.302114+00:00", "meta": {"OBJECT_NAME": "BEIDOU-3 IGSO-2 (C39)", "OBJECT_ID": "2019-035A", "EPOCH": "2025-12-18T08:43:59.136096", "MEAN_MOTION": 1.00269659, "ECCENTRICITY": 0.0037505, "INCLINATION": 55.2271, "RA_OF_ASC_NODE": 160.4519, "ARG_OF_PERICENTER": 202.287, "MEAN_ANOMALY": 334.9264, "EPHEMERIS_TYPE": 0, "CLASSIFICATION_TYPE": "U", "NORAD_CAT_ID": 44337, "ELEMENT_SET_NO": 999, "REV_AT_EPOCH": 2385, "BSTAR": 0, "MEAN_MOTION_DOT": -4.9e-07, "MEAN_MOTION_DDOT": 0}, "tle": {"line1": "1 44337U 19035A   25352.36387889 -.00000049  00000+0  00000+0 0  9990", "line2": "2 44337  55.2271 160.4519 0037505 202.2870 334.9264  1.00269659 23859"}}, "geometry": {"type": "Point", "coordinates": [-173.42234505306214, 32.34412950768111]}}]}